{"type": "FeatureCollection", "features": [ {"type": "Feature", "properties": {"norad_id": 37993, "name": "COSMOS 2251 DEB", "group": "cosmos-2251-debris", "lat": -52.44917797540832, "lon": 28.729403742513956, "alt_km": 688.8166945021221, "timestamp": "2025-12-02T07:10:09.514268+00:00", "meta": {"OBJECT_NAME": "COSMOS 2251 DEB", "OBJECT_ID": "1993-036BQU", "EPOCH": "2025-12-01T15:17:18.489984", "MEAN_MOTION": 14.59707982, "ECCENTRICITY": 0.00221925, "INCLINATION": 74.0231, "RA_OF_ASC_NODE": 188.1105, "ARG_OF_PERICENTER": 277.7268, "MEAN_ANOMALY": 82.1377, "EPHEMERIS_TYPE": 0, "CLASSIFICATION_TYPE": "U", "NORAD_CAT_ID": 37993, "ELEMENT_SET_NO": 999, "REV_AT_EPOCH": 65155, "BSTAR": 0.0011399711, "MEAN_MOTION_DOT": 5.429e-05, "MEAN_MOTION_DDOT": 0}, "tle": {"line1": "1 37993U 93036BQU 25335.63701956  .00005429  00000+0  11400-2 0  9994", "line2": "2 37993  74.0231 188.1105 0022192 277.7268  82.1377 14.59707982651551"}}, "geometry": {"type": "Point", "coordinates": [28.729403742513956, -52.44917797540832]}}, {"type": "Feature", "properties": {"norad_id": 37994, "name": "COSMOS 2251 DEB", "group": "cosmos-2251-debris", "lat": 1.9284952405197429, "lon": -64.47862729047147, "alt_km": 746.7625825721079, "timestamp": "2025-12-02T07:10:09.514277+00:00", "meta": {"OBJECT_NAME": "COSMOS 2251 DEB", "OBJECT_ID": "1993-036BQV", "EPOCH": "2025-12-01T14:28:54.543648", "MEAN_MOTION": 14.39578165, "ECCENTRICITY": 0.00224049, "INCLINATION": 74.0357, "RA_OF_ASC_NODE": 296.2525, "ARG_OF_PERICENTER": 18.1196, "MEAN_ANOMALY": 342.0752, "EPHEMERIS_TYPE": 0, "CLASSIFICATION_TYPE": "U", "NORAD_CAT_ID": 37994, "ELEMENT_SET_NO": 999, "REV_AT_EPOCH": 76904, "BSTAR": 0.00041337184, "MEAN_MOTION_DOT": 1.268e-05, "MEAN_MOTION_DDOT": 0}, "tle": {"line1": "1 37994U 93036BQV 25335.60340907  .00001268  00000+0  41337-3 0  9997", "line2": "2 37994  74.0357 296.2525 0022404  18.1196 342.0752 14.39578165769047"}}, "geometry": {"type": "Point", "coordinates": [-64.47862729047147, 1.9284952405197429]}}, {"type": "Feature", "properties": {"norad_id": 37996, "name": "COSMOS 2251 DEB", "group": "cosmos-2251-debris", "lat": -68.21214208286825, "lon": 175.93890017763582, "alt_km": 759.3947298243975, "timestamp": "2025-12-02T07:10:09.514287+00:00", "meta": {"OBJECT_NAME": "COSMOS 2251 DEB", "OBJECT_ID": "1993-036BQX", "EPOCH": "2025-11-16T18:35:00.708864", "MEAN_MOTION": 14.09591608, "ECCENTRICITY": 0.02219827, "INCLINATION": 74.0658, "RA_OF_ASC_NODE": 248.8308, "ARG_OF_PERICENTER": 5.4709, "MEAN_ANOMALY": 354.8776, "EPHEMERIS_TYPE": 0, "CLASSIFICATION_TYPE": "U", "NORAD_CAT_ID": 37996, "ELEMENT_SET_NO": 999, "REV_AT_EPOCH": 55769, "BSTAR": 0.0096790999, "MEAN_MOTION_DOT": 0.00021331, "MEAN_MOTION_DDOT": 0}, "tle": {"line1": "1 37996U 93036BQX 25320.77431376  .00021331  00000+0  96791-2 0  9998", "line2": "2 37996  74.0658 248.8308 0221982   5.4709 354.8776 14.09591608557693"}}, "geometry": {"type": "Point", "coordinates": [175.93890017763582, -68.21214208286825]}}, {"type": "Feature", "properties": {"norad_id": 37998, "name": "COSMOS 2251 DEB", "group": "cosmos-2251-debris", "lat": 42.986088641183166, "lon": -89.96425130313654, "alt_km": 733.0650684283328, "timestamp": "2025-12-02T07:10:09.514297+00:00", "meta": {"OBJECT_NAME": "COSMOS 2251 DEB", "OBJECT_ID": "1993-036BQZ", "EPOCH": "2025-11-29T12:31:01.771392", "MEAN_MOTION": 14.45395467, "ECCENTRICITY": 0.00197878, "INCLINATION": 74.0369, "RA_OF_ASC_NODE": 259.7366, "ARG_OF_PERICENTER": 336.2714, "MEAN_ANOMALY": 23.753, "EPHEMERIS_TYPE": 0, "CLASSIFICATION_TYPE": "U", "NORAD_CAT_ID": 37998, "ELEMENT_SET_NO": 999, "REV_AT_EPOCH": 64096, "BSTAR": 0.00059073677, "MEAN_MOTION_DOT": 2.057e-05, "MEAN_MOTION_DDOT": 0}, "tle": {"line1": "1 37998U 93036BQZ 25333.52154828  .00002057  00000+0  59074-3 0  9999", "line2": "2 37998  74.0369 259.7366 0019787 336.2714  23.7530 14.45395467640966"}}, "geometry": {"type": "Point", "coordinates": [-89.96425130313654, 42.986088641183166]}}, {"type": "Feature", "properties": {"norad_id": 38001, "name": "COSMOS 2251 DEB", "group": "cosmos-2251-debris", "lat": -2.5668361978647316, "lon": -26.35678740652223, "alt_km": 659.610611916055, "timestamp": "2025-12-02T07:10:09.514307+00:00", "meta": {"OBJECT_NAME": "COSMOS 2251 DEB", "OBJECT_ID": "1993-036BRC", "EPOCH": "2025-11-30T18:41:53.236032", "MEAN_MOTION": 14.78870093, "ECCENTRICITY": 0.00651424, "INCLINATION": 73.9992, "RA_OF_ASC_NODE": 155.8997, "ARG_OF_PERICENTER": 307.6156, "MEAN_ANOMALY": 68.485, "EPHEMERIS_TYPE": 0, "CLASSIFICATION_TYPE": "U", "NORAD_CAT_ID": 38001, "ELEMENT_SET_NO": 999, "REV_AT_EPOCH": 74531, "BSTAR": 0.00064961053, "MEAN_MOTION_DOT": 4.925e-05, "MEAN_MOTION_DDOT": 0}, "tle": {"line1": "1 38001U 93036BRC 25334.77908838  .00004925  00000+0  64961-3 0  9998", "line2": "2 38001  73.9992 155.8997 0065142 307.6156  68.4850 14.78870093745311"}}, "geometry": {"type": "Point", "coordinates": [-26.35678740652223, -2.5668361978647316]}}, {"type": "Feature", "properties": {"norad_id": 38006, "name": "COSMOS 2251 DEB", "group": "cosmos-2251-debris", "lat": -11.264466302513224, "lon": -118.96402200671864, "alt_km": 797.1625515868991, "timestamp": "2025-12-02T07:10:09.514317+00:00", "meta": {"OBJECT_NAME": "COSMOS 2251 DEB", "OBJECT_ID": "1993-036BRH", "EPOCH": "2025-12-01T12:00:57.044736", "MEAN_MOTION": 14.45530874, "ECCENTRICITY": 0.00745141, "INCLINATION": 73.8466, "RA_OF_ASC_NODE": 59.2312, "ARG_OF_PERICENTER": 10.3044, "MEAN_ANOMALY": 349.9618, "EPHEMERIS_TYPE": 0, "CLASSIFICATION_TYPE": "U", "NORAD_CAT_ID": 38006, "ELEMENT_SET_NO": 999, "REV_AT_EPOCH": 62797, "BSTAR": 0.0024598906, "MEAN_MOTION_DOT": 8.963e-05, "MEAN_MOTION_DDOT": 0}, "tle": {"line1": "1 38006U 93036BRH 25335.50066024  .00008963  00000+0  24599-2 0  9995", "line2": "2 38006  73.8466  59.2312 0074514  10.3044 349.9618 14.45530874627970"}}, "geometry": {"type": "Point", "coordinates": [-118.96402200671864, -11.264466302513224]}}, {"type": "Feature", "properties": {"norad_id": 38054, "name": "COSMOS 2251 DEB", "group": "cosmos-2251-debris", "lat": -18.937726569850188, "lon": 108.5455635469296, "alt_km": 904.3918948341216, "timestamp": "2025-12-02T07:10:09.514327+00:00", "meta": {"OBJECT_NAME": "COSMOS 2251 DEB", "OBJECT_ID": "1993-036BRL", "EPOCH": "2025-11-26T08:10:24.945600", "MEAN_MOTION": 13.62179263, "ECCENTRICITY": 0.03616303, "INCLINATION": 73.9545, "RA_OF_ASC_NODE": 292.6204, "ARG_OF_PERICENTER": 273.8545, "MEAN_ANOMALY": 241.8921, "EPHEMERIS_TYPE": 0, "CLASSIFICATION_TYPE": "U", "NORAD_CAT_ID": 38054, "ELEMENT_SET_NO": 999, "REV_AT_EPOCH": 66956, "BSTAR": 0.0037967706, "MEAN_MOTION_DOT": 4.525e-05, "MEAN_MOTION_DDOT": 0}, "tle": {"line1": "1 38054U 93036BRL 25330.34056650  .00004525  00000+0  37968-2 0  9993", "line2": "2 38054  73.9545 292.6204 0361630 273.8545 241.8921 13.62179263669562"}}, "geometry": {"type": "Point", "coordinates": [108.5455635469296, -18.937726569850188]}}, {"type": "Feature", "properties": {"norad_id": 38055, "name": "COSMOS 2251 DEB", "group": "cosmos-2251-debris", "lat": 26.118863599022717, "lon": 39.17399098004154, "alt_km": 680.1759869454991, "timestamp": "2025-12-02T07:10:09.514337+00:00", "meta": {"OBJECT_NAME": "COSMOS 2251 DEB", "OBJECT_ID": "1993-036BRM", "EPOCH": "2025-11-30T11:23:37.489344", "MEAN_MOTION": 14.76741647, "ECCENTRICITY": 0.00655995, "INCLINATION": 74.0094, "RA_OF_ASC_NODE": 230.8354, "ARG_OF_PERICENTER": 1.0653, "MEAN_ANOMALY": 178.44, "EPHEMERIS_TYPE": 0, "CLASSIFICATION_TYPE": "U", "NORAD_CAT_ID": 38055, "ELEMENT_SET_NO": 999, "REV_AT_EPOCH": 60501, "BSTAR": 0.0010104465, "MEAN_MOTION_DOT": 7.307e-05, "MEAN_MOTION_DDOT": 0}, "tle": {"line1": "1 38055U 93036BRM 25334.47473946  .00007307  00000+0  10104-2 0  9997", "line2": "2 38055  74.0094 230.8354 0065599   1.0653 178.4400 14.76741647605014"}}, "geometry": {"type": "Point", "coordinates": [39.17399098004154, 26.118863599022717]}}, {"type": "Feature", "properties": {"norad_id": 38060, "name": "COSMOS 2251 DEB", "group": "cosmos-2251-debris", "lat": 29.62760331038175, "lon": 125.98184510087633, "alt_km": 675.2295730486921, "timestamp": "2025-12-02T07:10:09.514347+00:00", "meta": {"OBJECT_NAME": "COSMOS 2251 DEB", "OBJECT_ID": "1993-036BRS", "EPOCH": "2025-11-30T16:46:11.567136", "MEAN_MOTION": 14.63742552, "ECCENTRICITY": 0.0057629, "INCLINATION": 74.0424, "RA_OF_ASC_NODE": 318.4162, "ARG_OF_PERICENTER": 67.815, "MEAN_ANOMALY": 292.9119, "EPHEMERIS_TYPE": 0, "CLASSIFICATION_TYPE": "U", "NORAD_CAT_ID": 38060, "ELEMENT_SET_NO": 999, "REV_AT_EPOCH": 71788, "BSTAR": 0.00051174098, "MEAN_MOTION_DOT": 2.701e-05, "MEAN_MOTION_DDOT": 0}, "tle": {"line1": "1 38060U 93036BRS 25334.69874499  .00002701  00000+0  51174-3 0  9991", "line2": "2 38060  74.0424 318.4162 0057629  67.8150 292.9119 14.63742552717884"}}, "geometry": {"type": "Point", "coordinates": [125.98184510087633, 29.62760331038175]}}, {"type": "Feature", "properties": {"norad_id": 38062, "name": "COSMOS 2251 DEB", "group": "cosmos-2251-debris", "lat": 44.78075161062742, "lon": -31.92201072932313, "alt_km": 574.4801394134038, "timestamp": "2025-12-02T07:10:09.514357+00:00", "meta": {"OBJECT_NAME": "COSMOS 2251 DEB", "OBJECT_ID": "1993-036BRU", "EPOCH": "2025-11-30T17:10:53.743584", "MEAN_MOTION": 14.93896276, "ECCENTRICITY": 0.00118795, "INCLINATION": 74.0086, "RA_OF_ASC_NODE": 314.734, "ARG_OF_PERICENTER": 83.9086, "MEAN_ANOMALY": 94.2953, "EPHEMERIS_TYPE": 0, "CLASSIFICATION_TYPE": "U", "NORAD_CAT_ID": 38062, "ELEMENT_SET_NO": 999, "REV_AT_EPOCH": 62850, "BSTAR": 0.0021975764, "MEAN_MOTION_DOT": 0.00023445, "MEAN_MOTION_DDOT": 0}, "tle": {"line1": "1 38062U 93036BRU 25334.71589981  .00023445  00000+0  21976-2 0  9999", "line2": "2 38062  74.0086 314.7340 0011879  83.9086  94.2953 14.93896276628506"}}, "geometry": {"type": "Point", "coordinates": [-31.92201072932313, 44.78075161062742]}}]}